[{"OBJECT_NAME":"STARLINK-3968","OBJECT_ID":"2022-052AT","EPOCH":"2026-03-09T17:33:00.992736","MEAN_MOTION":15.08834947,"ECCENTRICITY":0.0001466,"INCLINATION":53.217,"RA_OF_ASC_NODE":258.9365,"ARG_OF_PERICENTER":99.9884,"MEAN_ANOMALY":260.1274,"EPHEMERIS_TYPE":0,"CLASSIFICATION_TYPE":"U","NORAD_CAT_ID":52639,"ELEMENT_SET_NO":999,"REV_AT_EPOCH":21194,"BSTAR":2.3139328e-5,"MEAN_MOTION_DOT":8.0e-7,"MEAN_MOTION_DDOT":0},{"OBJECT_NAME":"YUNYAO-1 43","OBJECT_ID":"2025-059A","EPOCH":"2026-03-09T23:54:24.516576","MEAN_MOTION":15.10329109,"ECCENTRICITY":0.00157026,"INCLINATION":97.608,"RA_OF_ASC_NODE":250.9377,"ARG_OF_PERICENTER":132.1084,"MEAN_ANOMALY":228.1483,"EPHEMERIS_TYPE":0,"CLASSIFICATION_TYPE":"U","NORAD_CAT_ID":63344,"ELEMENT_SET_NO":999,"REV_AT_EPOCH":5332,"BSTAR":0.00032498885,"MEAN_MOTION_DOT":5.279e-5,"MEAN_MOTION_DDOT":0}]
